CSS (TIANHE)            
1 48274U 21035A   24260.65660409  .00031655  00000+0  32597-3 0  9994
2 48274  41.4674 245.4219 0002453 164.6946 195.3968 15.64157856193406
